XRISM                   
1 57800U 23137A   26073.79141130  .00007155  00000+0  40564-3 0  9999
2 57800  31.0009 250.6638 0007926  89.8559 270.2988 15.11563689138567
ACS3                    
1 59588U 24077B   26073.82579831  .00032826  00000+0  26159-1 0  9990
2 59588  97.2035  13.7831 0064397  64.3072 296.4724 13.89878315 94917
SZ-21 MODULE            
1 66515U 25246C   26073.59336335  .00048778  00000+0  41125-3 0  9996
2 66515  41.4735 173.1648 0000910 309.7124  50.3637 15.68965402 18846
