CCSDS_OMM_VERS = 2.0
CREATION_DATE  = 
ORIGINATOR     = 

OBJECT_NAME    = XRISM
OBJECT_ID      = 2023-137A
CENTER_NAME    = EARTH
REF_FRAME      = TEME
TIME_SYSTEM    = UTC
MEAN_ELEMENT_THEORY = SGP/SGP4

EPOCH          = 2026-03-14T18:59:37.936320
MEAN_MOTION    = 15.11563689
ECCENTRICITY   = .00079264
INCLINATION    = 31.0009
RA_OF_ASC_NODE = 250.6638
ARG_OF_PERICENTER = 89.8559
MEAN_ANOMALY   = 270.2988

EPHEMERIS_TYPE = 0
CLASSIFICATION_TYPE = U
NORAD_CAT_ID   = 57800
ELEMENT_SET_NO = 999
REV_AT_EPOCH   = 13856
BSTAR          = .40564317E-3
MEAN_MOTION_DOT = .7155E-4
MEAN_MOTION_DDOT = 0

CCSDS_OMM_VERS = 2.0
CREATION_DATE  = 
ORIGINATOR     = 

OBJECT_NAME    = ACS3
OBJECT_ID      = 2024-077B
CENTER_NAME    = EARTH
REF_FRAME      = TEME
TIME_SYSTEM    = UTC
MEAN_ELEMENT_THEORY = SGP/SGP4

EPOCH          = 2026-03-14T19:49:08.973984
MEAN_MOTION    = 13.89878315
ECCENTRICITY   = .00643979
INCLINATION    = 97.2035
RA_OF_ASC_NODE = 13.7831
ARG_OF_PERICENTER = 64.3072
MEAN_ANOMALY   = 296.4724

EPHEMERIS_TYPE = 0
CLASSIFICATION_TYPE = U
NORAD_CAT_ID   = 59588
ELEMENT_SET_NO = 999
REV_AT_EPOCH   = 9491
BSTAR          = .26158683E-1
MEAN_MOTION_DOT = .32826E-3
MEAN_MOTION_DDOT = 0

CCSDS_OMM_VERS = 2.0
CREATION_DATE  = 
ORIGINATOR     = 

OBJECT_NAME    = SZ-21 MODULE
OBJECT_ID      = 2025-246C
CENTER_NAME    = EARTH
REF_FRAME      = TEME
TIME_SYSTEM    = UTC
MEAN_ELEMENT_THEORY = SGP/SGP4

EPOCH          = 2026-03-14T14:14:26.593440
MEAN_MOTION    = 15.68965402
ECCENTRICITY   = .00009103
INCLINATION    = 41.4735
RA_OF_ASC_NODE = 173.1648
ARG_OF_PERICENTER = 309.7124
MEAN_ANOMALY   = 50.3637

EPHEMERIS_TYPE = 0
CLASSIFICATION_TYPE = U
NORAD_CAT_ID   = 66515
ELEMENT_SET_NO = 999
REV_AT_EPOCH   = 1884
BSTAR          = .41125442E-3
MEAN_MOTION_DOT = .48778E-3
MEAN_MOTION_DDOT = 0

